[{"OBJECT_NAME":"YAOGAN-43 01E","OBJECT_ID":"2024-148E","EPOCH":"2026-03-09T10:46:29.401824","MEAN_MOTION":15.23061231,"ECCENTRICITY":0.00047279,"INCLINATION":34.9939,"RA_OF_ASC_NODE":67.5277,"ARG_OF_PERICENTER":25.6868,"MEAN_ANOMALY":334.4081,"EPHEMERIS_TYPE":0,"CLASSIFICATION_TYPE":"U","NORAD_CAT_ID":60462,"ELEMENT_SET_NO":999,"REV_AT_EPOCH":8694,"BSTAR":0.00071899242,"MEAN_MOTION_DOT":0.0001736,"MEAN_MOTION_DDOT":0},{"OBJECT_NAME":"OBJECT H","OBJECT_ID":"2026-023H","EPOCH":"2026-03-09T17:12:47.154816","MEAN_MOTION":15.23139098,"ECCENTRICITY":0.00239537,"INCLINATION":96.639,"RA_OF_ASC_NODE":144.1723,"ARG_OF_PERICENTER":117.6533,"MEAN_ANOMALY":242.7142,"EPHEMERIS_TYPE":0,"CLASSIFICATION_TYPE":"U","NORAD_CAT_ID":67681,"ELEMENT_SET_NO":999,"REV_AT_EPOCH":484,"BSTAR":0.00052586846,"MEAN_MOTION_DOT":0.00012465,"MEAN_MOTION_DDOT":0}]
